{"type": "FeatureCollection", "features": [ {"type": "Feature", "properties": {"norad_id": 66560, "name": "STARLINK-35411", "group": "last-30-days", "lat": 35.41721308023828, "lon": 128.77697567393213, "alt_km": 406.46094301745507, "timestamp": "2025-12-19T22:41:51.094424+00:00", "meta": {"OBJECT_NAME": "STARLINK-35411", "OBJECT_ID": "2025-268D", "EPOCH": "2025-12-19T14:43:19.951104", "MEAN_MOTION": 15.5108909, "ECCENTRICITY": 9.01e-05, "INCLINATION": 43.002, "RA_OF_ASC_NODE": 80.9879, "ARG_OF_PERICENTER": 201.7737, "MEAN_ANOMALY": 158.3085, "EPHEMERIS_TYPE": 0, "CLASSIFICATION_TYPE": "U", "NORAD_CAT_ID": 66560, "ELEMENT_SET_NO": 999, "REV_AT_EPOCH": 569, "BSTAR": 0.016385, "MEAN_MOTION_DOT": 0.01064697, "MEAN_MOTION_DDOT": 0}, "tle": {"line1": "1 66560U 25268D   25353.61342536  .01064697  00000+0  16385-1 0  9990", "line2": "2 66560  43.0020  80.9879 0000901 201.7737 158.3085 15.51089090  5690"}}, "geometry": {"type": "Point", "coordinates": [128.77697567393213, 35.41721308023828]}}, {"type": "Feature", "properties": {"norad_id": 66561, "name": "STARLINK-35305", "group": "last-30-days", "lat": 36.79091863872616, "lon": 132.40654670697973, "alt_km": 411.42333892058286, "timestamp": "2025-12-19T22:41:51.094437+00:00", "meta": {"OBJECT_NAME": "STARLINK-35305", "OBJECT_ID": "2025-268E", "EPOCH": "2025-12-19T14:42:19.628352", "MEAN_MOTION": 15.50861628, "ECCENTRICITY": 0.0005566, "INCLINATION": 42.9992, "RA_OF_ASC_NODE": 80.98, "ARG_OF_PERICENTER": 212.2612, "MEAN_ANOMALY": 147.7908, "EPHEMERIS_TYPE": 0, "CLASSIFICATION_TYPE": "U", "NORAD_CAT_ID": 66561, "ELEMENT_SET_NO": 999, "REV_AT_EPOCH": 569, "BSTAR": 0.0024438, "MEAN_MOTION_DOT": 0.00147289, "MEAN_MOTION_DDOT": 0}, "tle": {"line1": "1 66561U 25268E   25353.61272718  .00147289  00000+0  24438-2 0  9992", "line2": "2 66561  42.9992  80.9800 0005566 212.2612 147.7908 15.50861628  5692"}}, "geometry": {"type": "Point", "coordinates": [132.40654670697973, 36.79091863872616]}}, {"type": "Feature", "properties": {"norad_id": 66562, "name": "STARLINK-35579", "group": "last-30-days", "lat": 36.07615192308859, "lon": 130.46510564632732, "alt_km": 411.8128057246531, "timestamp": "2025-12-19T22:41:51.094477+00:00", "meta": {"OBJECT_NAME": "STARLINK-35579", "OBJECT_ID": "2025-268F", "EPOCH": "2025-12-19T14:42:48.160224", "MEAN_MOTION": 15.50958781, "ECCENTRICITY": 0.0006507, "INCLINATION": 43.0004, "RA_OF_ASC_NODE": 80.9825, "ARG_OF_PERICENTER": 213.1828, "MEAN_ANOMALY": 146.8625, "EPHEMERIS_TYPE": 0, "CLASSIFICATION_TYPE": "U", "NORAD_CAT_ID": 66562, "ELEMENT_SET_NO": 999, "REV_AT_EPOCH": 569, "BSTAR": 0.0032474, "MEAN_MOTION_DOT": 0.00197828, "MEAN_MOTION_DDOT": 0}, "tle": {"line1": "1 66562U 25268F   25353.61305741  .00197828  00000+0  32474-2 0  9999", "line2": "2 66562  43.0004  80.9825 0006507 213.1828 146.8625 15.50958781  5694"}}, "geometry": {"type": "Point", "coordinates": [130.46510564632732, 36.07615192308859]}}, {"type": "Feature", "properties": {"norad_id": 66563, "name": "STARLINK-35437", "group": "last-30-days", "lat": 37.71893668675039, "lon": 135.12403235477043, "alt_km": 403.58702476295, "timestamp": "2025-12-19T22:41:51.094494+00:00", "meta": {"OBJECT_NAME": "STARLINK-35437", "OBJECT_ID": "2025-268G", "EPOCH": "2025-12-19T14:41:52.941984", "MEAN_MOTION": 15.51028655, "ECCENTRICITY": 0.0003497, "INCLINATION": 42.9995, "RA_OF_ASC_NODE": 80.9781, "ARG_OF_PERICENTER": 59.3053, "MEAN_ANOMALY": 300.8151, "EPHEMERIS_TYPE": 0, "CLASSIFICATION_TYPE": "U", "NORAD_CAT_ID": 66563, "ELEMENT_SET_NO": 999, "REV_AT_EPOCH": 569, "BSTAR": 0.016026, "MEAN_MOTION_DOT": 0.01053473, "MEAN_MOTION_DDOT": 0}, "tle": {"line1": "1 66563U 25268G   25353.61241831  .01053473  00000+0  16026-1 0  9991", "line2": "2 66563  42.9995  80.9781 0003497  59.3053 300.8151 15.51028655  5693"}}, "geometry": {"type": "Point", "coordinates": [135.12403235477043, 37.71893668675039]}}, {"type": "Feature", "properties": {"norad_id": 66564, "name": "STARLINK-35358", "group": "last-30-days", "lat": 38.42459802010755, "lon": 137.36298692903517, "alt_km": 404.4091410393912, "timestamp": "2025-12-19T22:41:51.094505+00:00", "meta": {"OBJECT_NAME": "STARLINK-35358", "OBJECT_ID": "2025-268H", "EPOCH": "2025-12-19T14:41:22.868736", "MEAN_MOTION": 15.5102121, "ECCENTRICITY": 0.0002353, "INCLINATION": 43.0039, "RA_OF_ASC_NODE": 80.9756, "ARG_OF_PERICENTER": 55.2616, "MEAN_ANOMALY": 304.8465, "EPHEMERIS_TYPE": 0, "CLASSIFICATION_TYPE": "U", "NORAD_CAT_ID": 66564, "ELEMENT_SET_NO": 999, "REV_AT_EPOCH": 569, "BSTAR": 0.014889, "MEAN_MOTION_DOT": 0.00971033, "MEAN_MOTION_DDOT": 0}, "tle": {"line1": "1 66564U 25268H   25353.61207024  .00971033  00000+0  14889-1 0  9993", "line2": "2 66564  43.0039  80.9756 0002353  55.2616 304.8465 15.51021210  5699"}}, "geometry": {"type": "Point", "coordinates": [137.36298692903517, 38.42459802010755]}}, {"type": "Feature", "properties": {"norad_id": 66565, "name": "STARLINK-35893", "group": "last-30-days", "lat": 39.070284816878605, "lon": 139.60064609409557, "alt_km": 405.4581643867796, "timestamp": "2025-12-19T22:41:51.094515+00:00", "meta": {"OBJECT_NAME": "STARLINK-35893", "OBJECT_ID": "2025-268J", "EPOCH": "2025-12-19T14:40:50.958624", "MEAN_MOTION": 15.51016208, "ECCENTRICITY": 0.000203, "INCLINATION": 43.0036, "RA_OF_ASC_NODE": 80.972, "ARG_OF_PERICENTER": 50.3117, "MEAN_ANOMALY": 309.7922, "EPHEMERIS_TYPE": 0, "CLASSIFICATION_TYPE": "U", "NORAD_CAT_ID": 66565, "ELEMENT_SET_NO": 999, "REV_AT_EPOCH": 569, "BSTAR": 0.0068336, "MEAN_MOTION_DOT": 0.00430014, "MEAN_MOTION_DDOT": 0}, "tle": {"line1": "1 66565U 25268J   25353.61170091  .00430014  00000+0  68336-2 0  9993", "line2": "2 66565  43.0036  80.9720 0002030  50.3117 309.7922 15.51016208  5695"}}, "geometry": {"type": "Point", "coordinates": [139.60064609409557, 39.070284816878605]}}, {"type": "Feature", "properties": {"norad_id": 66566, "name": "STARLINK-35871", "group": "last-30-days", "lat": 39.49762345747656, "lon": 141.2130839734753, "alt_km": 409.31241354023405, "timestamp": "2025-12-19T22:41:51.094549+00:00", "meta": {"OBJECT_NAME": "STARLINK-35871", "OBJECT_ID": "2025-268K", "EPOCH": "2025-12-19T13:07:38.995968", "MEAN_MOTION": 15.50761658, "ECCENTRICITY": 0.0003183, "INCLINATION": 43.0002, "RA_OF_ASC_NODE": 81.3513, "ARG_OF_PERICENTER": 298.1576, "MEAN_ANOMALY": 61.8963, "EPHEMERIS_TYPE": 0, "CLASSIFICATION_TYPE": "U", "NORAD_CAT_ID": 66566, "ELEMENT_SET_NO": 999, "REV_AT_EPOCH": 568, "BSTAR": 0.0016703, "MEAN_MOTION_DOT": 0.00099562, "MEAN_MOTION_DDOT": 0}, "tle": {"line1": "1 66566U 25268K   25353.54697912  .00099562  00000+0  16703-2 0  9992", "line2": "2 66566  43.0002  81.3513 0003183 298.1576  61.8963 15.50761658  5680"}}, "geometry": {"type": "Point", "coordinates": [141.2130839734753, 39.49762345747656]}}, {"type": "Feature", "properties": {"norad_id": 66567, "name": "STARLINK-35825", "group": "last-30-days", "lat": 40.181973687859305, "lon": 144.00355356374934, "alt_km": 410.63773473265064, "timestamp": "2025-12-19T22:41:51.094560+00:00", "meta": {"OBJECT_NAME": "STARLINK-35825", "OBJECT_ID": "2025-268L", "EPOCH": "2025-12-19T14:39:50.540832", "MEAN_MOTION": 15.50905897, "ECCENTRICITY": 0.0006551, "INCLINATION": 43.0004, "RA_OF_ASC_NODE": 80.9669, "ARG_OF_PERICENTER": 206.3981, "MEAN_ANOMALY": 153.6546, "EPHEMERIS_TYPE": 0, "CLASSIFICATION_TYPE": "U", "NORAD_CAT_ID": 66567, "ELEMENT_SET_NO": 999, "REV_AT_EPOCH": 569, "BSTAR": 0.0027371, "MEAN_MOTION_DOT": 0.00165693, "MEAN_MOTION_DDOT": 0}, "tle": {"line1": "1 66567U 25268L   25353.61100163  .00165693  00000+0  27371-2 0  9990", "line2": "2 66567  43.0004  80.9669 0006551 206.3981 153.6546 15.50905897  5696"}}, "geometry": {"type": "Point", "coordinates": [144.00355356374934, 40.181973687859305]}}, {"type": "Feature", "properties": {"norad_id": 66568, "name": "STARLINK-35803", "group": "last-30-days", "lat": 40.61503001489576, "lon": 145.9594444215503, "alt_km": 407.5821146902699, "timestamp": "2025-12-19T22:41:51.094570+00:00", "meta": {"OBJECT_NAME": "STARLINK-35803", "OBJECT_ID": "2025-268M", "EPOCH": "2025-12-19T13:06:40.927392", "MEAN_MOTION": 15.50770242, "ECCENTRICITY": 7.69e-05, "INCLINATION": 43.0025, "RA_OF_ASC_NODE": 81.3422, "ARG_OF_PERICENTER": 350.7956, "MEAN_ANOMALY": 9.289, "EPHEMERIS_TYPE": 0, "CLASSIFICATION_TYPE": "U", "NORAD_CAT_ID": 66568, "ELEMENT_SET_NO": 999, "REV_AT_EPOCH": 568, "BSTAR": 0.0024142, "MEAN_MOTION_DOT": 0.00144926, "MEAN_MOTION_DDOT": 0}, "tle": {"line1": "1 66568U 25268M   25353.54630703  .00144926  00000+0  24142-2 0  9990", "line2": "2 66568  43.0025  81.3422 0000769 350.7956   9.2890 15.50770242  5684"}}, "geometry": {"type": "Point", "coordinates": [145.9594444215503, 40.61503001489576]}}, {"type": "Feature", "properties": {"norad_id": 66569, "name": "STARLINK-35835", "group": "last-30-days", "lat": 41.266906117123675, "lon": 149.32047047597987, "alt_km": 406.0412303783478, "timestamp": "2025-12-19T22:41:51.094580+00:00", "meta": {"OBJECT_NAME": "STARLINK-35835", "OBJECT_ID": "2025-268N", "EPOCH": "2025-12-19T14:38:53.453760", "MEAN_MOTION": 15.51068809, "ECCENTRICITY": 0.000157, "INCLINATION": 43.0021, "RA_OF_ASC_NODE": 80.9616, "ARG_OF_PERICENTER": 180.5459, "MEAN_ANOMALY": 179.5399, "EPHEMERIS_TYPE": 0, "CLASSIFICATION_TYPE": "U", "NORAD_CAT_ID": 66569, "ELEMENT_SET_NO": 999, "REV_AT_EPOCH": 569, "BSTAR": 0.01158, "MEAN_MOTION_DOT": 0.0075028, "MEAN_MOTION_DDOT": 0}, "tle": {"line1": "1 66569U 25268N   25353.61034090  .00750280  00000+0  11580-1 0  9993", "line2": "2 66569  43.0021  80.9616 0001570 180.5459 179.5399 15.51068809  5695"}}, "geometry": {"type": "Point", "coordinates": [149.32047047597987, 41.266906117123675]}}]}